{"fetched_at":"2026-07-19T07:04:52.450Z","source":"https://celestrak.org/NORAD/elements/gp.php?GROUP=qianfan&FORMAT=JSON","constellation":"qianfan","records":[{"OBJECT_NAME":"QIANFAN-145","OBJECT_ID":"2026-108A","EPOCH":"2026-07-18T15:50:46.728384","CLASSIFICATION_TYPE":"U","MEAN_MOTION":13.6039418,"ECCENTRICITY":0.0022079,"INCLINATION":89.0103,"RA_OF_ASC_NODE":18.9057,"ARG_OF_PERICENTER":1.7626,"MEAN_ANOMALY":358.3604,"EPHEMERIS_TYPE":0,"NORAD_CAT_ID":69104,"ELEMENT_SET_NO":999,"REV_AT_EPOCH":868,"BSTAR":-2.7376,"MEAN_MOTION_DOT":-0.01911575,"MEAN_MOTION_DDOT":0},{"OBJECT_NAME":"QIANFAN-146","OBJECT_ID":"2026-108B","EPOCH":"2026-07-18T15:18:28.982016","CLASSIFICATION_TYPE":"U","MEAN_MOTION":13.79739615,"ECCENTRICITY":0.0020358,"INCLINATION":89.0107,"RA_OF_ASC_NODE":18.7979,"ARG_OF_PERICENTER":24.1023,"MEAN_ANOMALY":336.1093,"EPHEMERIS_TYPE":0,"NORAD_CAT_ID":69105,"ELEMENT_SET_NO":999,"REV_AT_EPOCH":874,"BSTAR":-2.0808,"MEAN_MOTION_DOT":-0.02009618,"MEAN_MOTION_DDOT":0},{"OBJECT_NAME":"QIANFAN-147","OBJECT_ID":"2026-108C","EPOCH":"2026-07-17T22:20:50.186688","CLASSIFICATION_TYPE":"U","MEAN_MOTION":13.55164921,"ECCENTRICITY":0.0016817,"INCLINATION":89.0103,"RA_OF_ASC_NODE":18.9809,"ARG_OF_PERICENTER":23.7391,"MEAN_ANOMALY":336.4535,"EPHEMERIS_TYPE":0,"NORAD_CAT_ID":69106,"ELEMENT_SET_NO":999,"REV_AT_EPOCH":857,"BSTAR":-3.07,"MEAN_MOTION_DOT":-0.01988083,"MEAN_MOTION_DDOT":0},{"OBJECT_NAME":"QIANFAN-148","OBJECT_ID":"2026-108D","EPOCH":"2026-07-18T15:41:16.027008","CLASSIFICATION_TYPE":"U","MEAN_MOTION":13.56853878,"ECCENTRICITY":0.0019724,"INCLINATION":89.0097,"RA_OF_ASC_NODE":18.9019,"ARG_OF_PERICENTER":19.8661,"MEAN_ANOMALY":340.3257,"EPHEMERIS_TYPE":0,"NORAD_CAT_ID":69107,"ELEMENT_SET_NO":999,"REV_AT_EPOCH":867,"BSTAR":-2.7534,"MEAN_MOTION_DOT":-0.01822815,"MEAN_MOTION_DDOT":0},{"OBJECT_NAME":"QIANFAN-149","OBJECT_ID":"2026-108E","EPOCH":"2026-07-18T18:35:28.148640","CLASSIFICATION_TYPE":"U","MEAN_MOTION":13.54537159,"ECCENTRICITY":0.0023897,"INCLINATION":89.0101,"RA_OF_ASC_NODE":18.9029,"ARG_OF_PERICENTER":24.8987,"MEAN_ANOMALY":335.3314,"EPHEMERIS_TYPE":0,"NORAD_CAT_ID":69108,"ELEMENT_SET_NO":999,"REV_AT_EPOCH":869,"BSTAR":-2.9605,"MEAN_MOTION_DOT":-0.01885945,"MEAN_MOTION_DDOT":0},{"OBJECT_NAME":"QIANFAN-150","OBJECT_ID":"2026-108F","EPOCH":"2026-07-18T01:03:53.809920","CLASSIFICATION_TYPE":"U","MEAN_MOTION":13.61470758,"ECCENTRICITY":0.0018413,"INCLINATION":89.0101,"RA_OF_ASC_NODE":18.9442,"ARG_OF_PERICENTER":4.5465,"MEAN_ANOMALY":355.5856,"EPHEMERIS_TYPE":0,"NORAD_CAT_ID":69109,"ELEMENT_SET_NO":999,"REV_AT_EPOCH":860,"BSTAR":-2.905,"MEAN_MOTION_DOT":-0.02074464,"MEAN_MOTION_DDOT":0},{"OBJECT_NAME":"QIANFAN-151","OBJECT_ID":"2026-108G","EPOCH":"2026-07-18T12:43:59.009376","CLASSIFICATION_TYPE":"U","MEAN_MOTION":13.58558911,"ECCENTRICITY":0.0019216,"INCLINATION":89.0099,"RA_OF_ASC_NODE":18.9053,"ARG_OF_PERICENTER":11.0537,"MEAN_ANOMALY":349.1036,"EPHEMERIS_TYPE":0,"NORAD_CAT_ID":69110,"ELEMENT_SET_NO":999,"REV_AT_EPOCH":866,"BSTAR":-2.8806,"MEAN_MOTION_DOT":-0.01970361,"MEAN_MOTION_DDOT":0},{"OBJECT_NAME":"QIANFAN-152","OBJECT_ID":"2026-108H","EPOCH":"2026-07-18T17:23:56.455872","CLASSIFICATION_TYPE":"U","MEAN_MOTION":13.56995443,"ECCENTRICITY":0.0019793,"INCLINATION":89.0105,"RA_OF_ASC_NODE":18.8794,"ARG_OF_PERICENTER":16.9396,"MEAN_ANOMALY":343.2415,"EPHEMERIS_TYPE":0,"NORAD_CAT_ID":69111,"ELEMENT_SET_NO":999,"REV_AT_EPOCH":870,"BSTAR":-3.0864,"MEAN_MOTION_DOT":-0.02053861,"MEAN_MOTION_DDOT":0},{"OBJECT_NAME":"QIANFAN-153","OBJECT_ID":"2026-108J","EPOCH":"2026-07-18T15:45:54.152064","CLASSIFICATION_TYPE":"U","MEAN_MOTION":13.6500934,"ECCENTRICITY":0.0022768,"INCLINATION":89.0096,"RA_OF_ASC_NODE":18.8838,"ARG_OF_PERICENTER":21.1679,"MEAN_ANOMALY":339.0417,"EPHEMERIS_TYPE":0,"NORAD_CAT_ID":69112,"ELEMENT_SET_NO":999,"REV_AT_EPOCH":868,"BSTAR":-2.7118,"MEAN_MOTION_DOT":-0.02052749,"MEAN_MOTION_DDOT":0},{"OBJECT_NAME":"QIANFAN-154","OBJECT_ID":"2026-108K","EPOCH":"2026-07-18T16:59:36.475584","CLASSIFICATION_TYPE":"U","MEAN_MOTION":13.53780667,"ECCENTRICITY":0.0023724,"INCLINATION":89.0107,"RA_OF_ASC_NODE":18.8956,"ARG_OF_PERICENTER":17.1267,"MEAN_ANOMALY":343.0681,"EPHEMERIS_TYPE":0,"NORAD_CAT_ID":69113,"ELEMENT_SET_NO":999,"REV_AT_EPOCH":869,"BSTAR":-3.1793,"MEAN_MOTION_DOT":-0.02014438,"MEAN_MOTION_DDOT":0},{"OBJECT_NAME":"QIANFAN-155","OBJECT_ID":"2026-108L","EPOCH":"2026-07-18T17:09:19.698048","CLASSIFICATION_TYPE":"U","MEAN_MOTION":13.59034779,"ECCENTRICITY":0.0017915,"INCLINATION":89.01,"RA_OF_ASC_NODE":18.8792,"ARG_OF_PERICENTER":12.599,"MEAN_ANOMALY":347.561,"EPHEMERIS_TYPE":0,"NORAD_CAT_ID":69114,"ELEMENT_SET_NO":999,"REV_AT_EPOCH":869,"BSTAR":-2.8667,"MEAN_MOTION_DOT":-0.01975117,"MEAN_MOTION_DDOT":0},{"OBJECT_NAME":"QIANFAN-156","OBJECT_ID":"2026-108M","EPOCH":"2026-07-18T15:29:26.196576","CLASSIFICATION_TYPE":"U","MEAN_MOTION":13.60567961,"ECCENTRICITY":0.0023452,"INCLINATION":89.0113,"RA_OF_ASC_NODE":18.8745,"ARG_OF_PERICENTER":2.9562,"MEAN_ANOMALY":357.1729,"EPHEMERIS_TYPE":0,"NORAD_CAT_ID":69115,"ELEMENT_SET_NO":999,"REV_AT_EPOCH":870,"BSTAR":-2.8509,"MEAN_MOTION_DOT":-0.0201206,"MEAN_MOTION_DDOT":0},{"OBJECT_NAME":"QIANFAN-157","OBJECT_ID":"2026-108N","EPOCH":"2026-07-18T18:23:48.350112","CLASSIFICATION_TYPE":"U","MEAN_MOTION":13.728833,"ECCENTRICITY":0.002,"INCLINATION":89.0103,"RA_OF_ASC_NODE":18.8113,"ARG_OF_PERICENTER":22.161,"MEAN_ANOMALY":338.0413,"EPHEMERIS_TYPE":0,"NORAD_CAT_ID":69116,"ELEMENT_SET_NO":999,"REV_AT_EPOCH":874,"BSTAR":7.0538e-7,"MEAN_MOTION_DOT":1.3e-7,"MEAN_MOTION_DDOT":0},{"OBJECT_NAME":"QIANFAN-158","OBJECT_ID":"2026-108P","EPOCH":"2026-07-18T10:19:37.932096","CLASSIFICATION_TYPE":"U","MEAN_MOTION":13.62681387,"ECCENTRICITY":0.0018769,"INCLINATION":89.0099,"RA_OF_ASC_NODE":18.8715,"ARG_OF_PERICENTER":20.6686,"MEAN_ANOMALY":339.5227,"EPHEMERIS_TYPE":0,"NORAD_CAT_ID":69117,"ELEMENT_SET_NO":999,"REV_AT_EPOCH":868,"BSTAR":-2.8682,"MEAN_MOTION_DOT":-0.02087596,"MEAN_MOTION_DDOT":0},{"OBJECT_NAME":"QIANFAN-159","OBJECT_ID":"2026-108Q","EPOCH":"2026-07-18T08:19:40.018080","CLASSIFICATION_TYPE":"U","MEAN_MOTION":13.59515039,"ECCENTRICITY":0.0017989,"INCLINATION":89.009,"RA_OF_ASC_NODE":18.8921,"ARG_OF_PERICENTER":5.0127,"MEAN_ANOMALY":355.1206,"EPHEMERIS_TYPE":0,"NORAD_CAT_ID":69118,"ELEMENT_SET_NO":999,"REV_AT_EPOCH":866,"BSTAR":-3.0133,"MEAN_MOTION_DOT":-0.0208471,"MEAN_MOTION_DDOT":0},{"OBJECT_NAME":"QIANFAN-160","OBJECT_ID":"2026-108R","EPOCH":"2026-07-18T12:49:31.298592","CLASSIFICATION_TYPE":"U","MEAN_MOTION":13.55239078,"ECCENTRICITY":0.0024819,"INCLINATION":89.0109,"RA_OF_ASC_NODE":18.8891,"ARG_OF_PERICENTER":22.7576,"MEAN_ANOMALY":337.4672,"EPHEMERIS_TYPE":0,"NORAD_CAT_ID":69119,"ELEMENT_SET_NO":999,"REV_AT_EPOCH":868,"BSTAR":-3.1092,"MEAN_MOTION_DOT":-0.02016168,"MEAN_MOTION_DDOT":0}]}
